[{"OBJECT_NAME":"STARLINK-5727","OBJECT_ID":"2023-020U","EPOCH":"2026-03-09T22:00:01.999584","MEAN_MOTION":15.1135593,"ECCENTRICITY":0.00015609,"INCLINATION":43.001,"RA_OF_ASC_NODE":2.9941,"ARG_OF_PERICENTER":231.255,"MEAN_ANOMALY":270.7764,"EPHEMERIS_TYPE":0,"CLASSIFICATION_TYPE":"U","NORAD_CAT_ID":55587,"ELEMENT_SET_NO":999,"REV_AT_EPOCH":568,"BSTAR":0.026212648,"MEAN_MOTION_DOT":0.00476079,"MEAN_MOTION_DDOT":0},{"OBJECT_NAME":"PTD-4 (LISA-T)","OBJECT_ID":"2024-149DB","EPOCH":"2026-03-09T16:01:41.648160","MEAN_MOTION":15.17820166,"ECCENTRICITY":0.00028752,"INCLINATION":97.6982,"RA_OF_ASC_NODE":155.5534,"ARG_OF_PERICENTER":46.4623,"MEAN_ANOMALY":313.6849,"EPHEMERIS_TYPE":0,"CLASSIFICATION_TYPE":"U","NORAD_CAT_ID":60565,"ELEMENT_SET_NO":999,"REV_AT_EPOCH":8570,"BSTAR":0.0011421385,"MEAN_MOTION_DOT":0.0002309,"MEAN_MOTION_DDOT":0}]
